{"type": "FeatureCollection", "features": [ {"type": "Feature", "properties": {"norad_id": 66900, "name": "STARLINK-36074", "group": "last-30-days", "lat": -27.69214822570156, "lon": -0.08276990872710917, "alt_km": 356.8402107989641, "timestamp": "2025-12-22T20:43:44.566940+00:00", "meta": {"OBJECT_NAME": "STARLINK-36074", "OBJECT_ID": "2025-283Y", "EPOCH": "2025-12-22T14:00:01.999872", "MEAN_MOTION": 15.73151676, "ECCENTRICITY": 0.00013664, "INCLINATION": 53.1581, "RA_OF_ASC_NODE": 24.4789, "ARG_OF_PERICENTER": 47.5002, "MEAN_ANOMALY": 129.0215, "EPHEMERIS_TYPE": 0, "CLASSIFICATION_TYPE": "U", "NORAD_CAT_ID": 66900, "ELEMENT_SET_NO": 999, "REV_AT_EPOCH": 401, "BSTAR": -0.01520847, "MEAN_MOTION_DOT": -0.01858101, "MEAN_MOTION_DDOT": 0}, "tle": {"line1": "1 66900U 25283Y   25356.58335648 -.01858101  00000+0 -15208-1 0  9996", "line2": "2 66900  53.1581  24.4789 0001366  47.5002 129.0215 15.73151676  4011"}}, "geometry": {"type": "Point", "coordinates": [-0.08276990872710917, -27.69214822570156]}}, {"type": "Feature", "properties": {"norad_id": 66901, "name": "STARLINK-36043", "group": "last-30-days", "lat": -26.27213081655398, "lon": 1.3638110860815866, "alt_km": 357.0082144179578, "timestamp": "2025-12-22T20:43:44.566950+00:00", "meta": {"OBJECT_NAME": "STARLINK-36043", "OBJECT_ID": "2025-283Z", "EPOCH": "2025-12-22T14:00:01.999872", "MEAN_MOTION": 15.73151749, "ECCENTRICITY": 0.00012209, "INCLINATION": 53.1581, "RA_OF_ASC_NODE": 24.4747, "ARG_OF_PERICENTER": 70.9806, "MEAN_ANOMALY": 107.4605, "EPHEMERIS_TYPE": 0, "CLASSIFICATION_TYPE": "U", "NORAD_CAT_ID": 66901, "ELEMENT_SET_NO": 999, "REV_AT_EPOCH": 401, "BSTAR": -0.015202443, "MEAN_MOTION_DOT": -0.01857344, "MEAN_MOTION_DDOT": 0}, "tle": {"line1": "1 66901U 25283Z   25356.58335648 -.01857344  00000+0 -15202-1 0  9999", "line2": "2 66901  53.1581  24.4747 0001220  70.9806 107.4605 15.73151749  4011"}}, "geometry": {"type": "Point", "coordinates": [1.3638110860815866, -26.27213081655398]}}, {"type": "Feature", "properties": {"norad_id": 66902, "name": "STARLINK-35983", "group": "last-30-days", "lat": -24.847872132741287, "lon": 2.7655069742653873, "alt_km": 356.93640926256194, "timestamp": "2025-12-22T20:43:44.566960+00:00", "meta": {"OBJECT_NAME": "STARLINK-35983", "OBJECT_ID": "2025-283AA", "EPOCH": "2025-12-22T14:00:01.999872", "MEAN_MOTION": 15.73170328, "ECCENTRICITY": 0.00015649, "INCLINATION": 53.1582, "RA_OF_ASC_NODE": 24.4705, "ARG_OF_PERICENTER": 72.3651, "MEAN_ANOMALY": 107.9758, "EPHEMERIS_TYPE": 0, "CLASSIFICATION_TYPE": "U", "NORAD_CAT_ID": 66902, "ELEMENT_SET_NO": 999, "REV_AT_EPOCH": 401, "BSTAR": -0.01534224, "MEAN_MOTION_DOT": -0.0187376, "MEAN_MOTION_DDOT": 0}, "tle": {"line1": "1 66902U 25283AA  25356.58335648 -.01873760  00000+0 -15342-1 0  9995", "line2": "2 66902  53.1582  24.4705 0001564  72.3651 107.9758 15.73170328  4010"}}, "geometry": {"type": "Point", "coordinates": [2.7655069742653873, -24.847872132741287]}}, {"type": "Feature", "properties": {"norad_id": 66903, "name": "STARLINK-36077", "group": "last-30-days", "lat": -23.404837785661222, "lon": 4.141174532143912, "alt_km": 356.61993573033124, "timestamp": "2025-12-22T20:43:44.566969+00:00", "meta": {"OBJECT_NAME": "STARLINK-36077", "OBJECT_ID": "2025-283AB", "EPOCH": "2025-12-22T14:00:01.999872", "MEAN_MOTION": 15.73149199, "ECCENTRICITY": 0.00014746, "INCLINATION": 53.1583, "RA_OF_ASC_NODE": 24.4668, "ARG_OF_PERICENTER": 61.0296, "MEAN_ANOMALY": 121.2403, "EPHEMERIS_TYPE": 0, "CLASSIFICATION_TYPE": "U", "NORAD_CAT_ID": 66903, "ELEMENT_SET_NO": 999, "REV_AT_EPOCH": 401, "BSTAR": -0.01513193, "MEAN_MOTION_DOT": -0.01849892, "MEAN_MOTION_DDOT": 0}, "tle": {"line1": "1 66903U 25283AB  25356.58335648 -.01849892  00000+0 -15132-1 0  9992", "line2": "2 66903  53.1583  24.4668 0001474  61.0296 121.2403 15.73149199  4018"}}, "geometry": {"type": "Point", "coordinates": [4.141174532143912, -23.404837785661222]}}, {"type": "Feature", "properties": {"norad_id": 66904, "name": "STARLINK-36059", "group": "last-30-days", "lat": -21.947985615792177, "lon": 5.487808453120574, "alt_km": 356.36378411756687, "timestamp": "2025-12-22T20:43:44.566981+00:00", "meta": {"OBJECT_NAME": "STARLINK-36059", "OBJECT_ID": "2025-283AC", "EPOCH": "2025-12-22T14:00:01.999872", "MEAN_MOTION": 15.73152635, "ECCENTRICITY": 0.00013649, "INCLINATION": 53.1585, "RA_OF_ASC_NODE": 24.4621, "ARG_OF_PERICENTER": 53.2106, "MEAN_ANOMALY": 130.9762, "EPHEMERIS_TYPE": 0, "CLASSIFICATION_TYPE": "U", "NORAD_CAT_ID": 66904, "ELEMENT_SET_NO": 999, "REV_AT_EPOCH": 401, "BSTAR": -0.015195953, "MEAN_MOTION_DOT": -0.01856837, "MEAN_MOTION_DDOT": 0}, "tle": {"line1": "1 66904U 25283AC  25356.58335648 -.01856837  00000+0 -15196-1 0  9990", "line2": "2 66904  53.1585  24.4621 0001364  53.2106 130.9762 15.73152635  4015"}}, "geometry": {"type": "Point", "coordinates": [5.487808453120574, -21.947985615792177]}}, {"type": "Feature", "properties": {"norad_id": 66905, "name": "STARLINK-36075", "group": "last-30-days", "lat": -20.484350360521326, "lon": 6.804596263202234, "alt_km": 356.48368390804444, "timestamp": "2025-12-22T20:43:44.566991+00:00", "meta": {"OBJECT_NAME": "STARLINK-36075", "OBJECT_ID": "2025-283AD", "EPOCH": "2025-12-22T14:00:01.999872", "MEAN_MOTION": 15.73172719, "ECCENTRICITY": 0.0001563, "INCLINATION": 53.1584, "RA_OF_ASC_NODE": 24.4589, "ARG_OF_PERICENTER": 72.4555, "MEAN_ANOMALY": 113.6331, "EPHEMERIS_TYPE": 0, "CLASSIFICATION_TYPE": "U", "NORAD_CAT_ID": 66905, "ELEMENT_SET_NO": 999, "REV_AT_EPOCH": 401, "BSTAR": -0.015357482, "MEAN_MOTION_DOT": -0.01875541, "MEAN_MOTION_DDOT": 0}, "tle": {"line1": "1 66905U 25283AD  25356.58335648 -.01875541  00000+0 -15357-1 0  9993", "line2": "2 66905  53.1584  24.4589 0001563  72.4555 113.6331 15.73172719  4015"}}, "geometry": {"type": "Point", "coordinates": [6.804596263202234, -20.484350360521326]}}, {"type": "Feature", "properties": {"norad_id": 66906, "name": "1998-067XS", "group": "last-30-days", "lat": 50.89531083717788, "lon": -164.89430836210562, "alt_km": 408.2841359476015, "timestamp": "2025-12-22T20:43:44.567003+00:00", "meta": {"OBJECT_NAME": "1998-067XS", "OBJECT_ID": "1998-067XS", "EPOCH": "2025-12-22T11:01:48.942336", "MEAN_MOTION": 15.51071617, "ECCENTRICITY": 0.00028954, "INCLINATION": 51.6319, "RA_OF_ASC_NODE": 94.197, "ARG_OF_PERICENTER": 250.8689, "MEAN_ANOMALY": 109.1987, "EPHEMERIS_TYPE": 0, "CLASSIFICATION_TYPE": "U", "NORAD_CAT_ID": 66906, "ELEMENT_SET_NO": 999, "REV_AT_EPOCH": 312, "BSTAR": 0.00051361561, "MEAN_MOTION_DOT": 0.00030106, "MEAN_MOTION_DDOT": 0}, "tle": {"line1": "1 66906U 98067XS  25356.45959424  .00030106  00000+0  51362-3 0  9999", "line2": "2 66906  51.6319  94.1970 0002895 250.8689 109.1987 15.51071617  3121"}}, "geometry": {"type": "Point", "coordinates": [-164.89430836210562, 50.89531083717788]}}, {"type": "Feature", "properties": {"norad_id": 66907, "name": "1998-067XT", "group": "last-30-days", "lat": 16.881606321126043, "lon": -101.8468208123004, "alt_km": 408.9342997644435, "timestamp": "2025-12-22T20:43:44.567013+00:00", "meta": {"OBJECT_NAME": "1998-067XT", "OBJECT_ID": "1998-067XT", "EPOCH": "2025-12-22T07:41:32.890848", "MEAN_MOTION": 15.52583192, "ECCENTRICITY": 0.00038425, "INCLINATION": 51.6311, "RA_OF_ASC_NODE": 94.7687, "ARG_OF_PERICENTER": 286.1212, "MEAN_ANOMALY": 73.9355, "EPHEMERIS_TYPE": 0, "CLASSIFICATION_TYPE": "U", "NORAD_CAT_ID": 66907, "ELEMENT_SET_NO": 999, "REV_AT_EPOCH": 310, "BSTAR": 0.0011084243, "MEAN_MOTION_DOT": 0.00069527, "MEAN_MOTION_DDOT": 0}, "tle": {"line1": "1 66907U 98067XT  25356.32051957  .00069527  00000+0  11084-2 0  9995", "line2": "2 66907  51.6311  94.7687 0003842 286.1212  73.9355 15.52583192  3104"}}, "geometry": {"type": "Point", "coordinates": [-101.8468208123004, 16.881606321126043]}}, {"type": "Feature", "properties": {"norad_id": 66908, "name": "1998-067XU", "group": "last-30-days", "lat": 12.826743850377445, "lon": -98.3390384960255, "alt_km": 408.9968350178424, "timestamp": "2025-12-22T20:43:44.567024+00:00", "meta": {"OBJECT_NAME": "1998-067XU", "OBJECT_ID": "1998-067XU", "EPOCH": "2025-12-22T12:18:16.541280", "MEAN_MOTION": 15.52707663, "ECCENTRICITY": 0.00038713, "INCLINATION": 51.631, "RA_OF_ASC_NODE": 93.8007, "ARG_OF_PERICENTER": 283.9304, "MEAN_ANOMALY": 76.1255, "EPHEMERIS_TYPE": 0, "CLASSIFICATION_TYPE": "U", "NORAD_CAT_ID": 66908, "ELEMENT_SET_NO": 999, "REV_AT_EPOCH": 313, "BSTAR": 0.0010107547, "MEAN_MOTION_DOT": 0.00063598, "MEAN_MOTION_DDOT": 0}, "tle": {"line1": "1 66908U 98067XU  25356.51269145  .00063598  00000+0  10108-2 0  9995", "line2": "2 66908  51.6310  93.8007 0003871 283.9304  76.1255 15.52707663  3137"}}, "geometry": {"type": "Point", "coordinates": [-98.3390384960255, 12.826743850377445]}}, {"type": "Feature", "properties": {"norad_id": 66909, "name": "SILVERSAT", "group": "last-30-days", "lat": 7.2023067837292984, "lon": -93.70730060653877, "alt_km": 409.13553070159105, "timestamp": "2025-12-22T20:43:44.567033+00:00", "meta": {"OBJECT_NAME": "SILVERSAT", "OBJECT_ID": "1998-067XV", "EPOCH": "2025-12-22T12:16:28.422912", "MEAN_MOTION": 15.52898333, "ECCENTRICITY": 0.0003866, "INCLINATION": 51.6306, "RA_OF_ASC_NODE": 93.7929, "ARG_OF_PERICENTER": 288.2093, "MEAN_ANOMALY": 71.8476, "EPHEMERIS_TYPE": 0, "CLASSIFICATION_TYPE": "U", "NORAD_CAT_ID": 66909, "ELEMENT_SET_NO": 999, "REV_AT_EPOCH": 313, "BSTAR": 0.0011325313, "MEAN_MOTION_DOT": 0.00071888, "MEAN_MOTION_DDOT": 0}, "tle": {"line1": "1 66909U 98067XV  25356.51144008  .00071888  00000+0  11325-2 0  9999", "line2": "2 66909  51.6306  93.7929 0003866 288.2093  71.8476 15.52898333  3134"}}, "geometry": {"type": "Point", "coordinates": [-93.70730060653877, 7.2023067837292984]}}]}